{
  "type": "FeatureCollection",
  "features": [
    {
      "type": "Feature",
      "properties": {
        "norad_id": 25590,
        "name": "COSMOS 2361",
        "group": "musson",
        "lat": -4.977656164949844,
        "lon": -22.35358683453243,
        "alt_km": 999.9295889848954,
        "timestamp": "2025-12-20T14:38:02.239684+00:00",
        "meta_object_name": "COSMOS 2361",
        "meta_object_id": "1998-076A",
        "meta_epoch": "2025-12-20T05:58:04.531584",
        "meta_mean_motion": 13.73218357,
        "meta_eccentricity": 0.00301638,
        "meta_inclination": 82.9341,
        "meta_ra_of_asc_node": 338.5323,
        "meta_arg_of_pericenter": 243.8265,
        "meta_mean_anomaly": 126.9049,
        "meta_ephemeris_type": 0,
        "meta_classification_type": "U",
        "meta_norad_cat_id": 25590,
        "meta_element_set_no": 999,
        "meta_rev_at_epoch": 35214,
        "meta_bstar": 4.0255726e-05,
        "meta_mean_motion_dot": 5.2e-07,
        "meta_mean_motion_ddot": 0,
        "tle_line1": "1 25590U 98076A   25354.24866356  .00000052  00000+0  40256-4 0  9997",
        "tle_line2": "2 25590  82.9341 338.5323 0030163 243.8265 126.9049 13.73218357352146"
      },
      "geometry": {
        "type": "Point",
        "coordinates": [
          -22.35358683453243,
          -4.977656164949844
        ]
      }
    },
    {
      "type": "Feature",
      "properties": {
        "norad_id": 26818,
        "name": "COSMOS 2378",
        "group": "musson",
        "lat": 82.23796239830787,
        "lon": 108.26853115437828,
        "alt_km": 977.0273648703087,
        "timestamp": "2025-12-20T14:38:02.239706+00:00",
        "meta_object_name": "COSMOS 2378",
        "meta_object_id": "2001-023A",
        "meta_epoch": "2025-12-20T02:15:33.782400",
        "meta_mean_motion": 13.74142577,
        "meta_eccentricity": 0.00328573,
        "meta_inclination": 82.927,
        "meta_ra_of_asc_node": 354.2713,
        "meta_arg_of_pericenter": 184.1929,
        "meta_mean_anomaly": 240.1457,
        "meta_ephemeris_type": 0,
        "meta_classification_type": "U",
        "meta_norad_cat_id": 26818,
        "meta_element_set_no": 999,
        "meta_rev_at_epoch": 23024,
        "meta_bstar": 2.8179854e-05,
        "meta_mean_motion_dot": 4.2e-07,
        "meta_mean_motion_ddot": 0,
        "tle_line1": "1 26818U 01023A   25354.09414100  .00000042  00000+0  28180-4 0  9997",
        "tle_line2": "2 26818  82.9270 354.2713 0032857 184.1929 240.1457 13.74142577230244"
      },
      "geometry": {
        "type": "Point",
        "coordinates": [
          108.26853115437828,
          82.23796239830787
        ]
      }
    },
    {
      "type": "Feature",
      "properties": {
        "norad_id": 27436,
        "name": "COSMOS 2389",
        "group": "musson",
        "lat": -31.220152995204955,
        "lon": -63.14204322232977,
        "alt_km": 975.4027651928682,
        "timestamp": "2025-12-20T14:38:02.239720+00:00",
        "meta_object_name": "COSMOS 2389",
        "meta_object_id": "2002-026A",
        "meta_epoch": "2025-12-19T23:24:18.627840",
        "meta_mean_motion": 13.75155401,
        "meta_eccentricity": 0.0047366,
        "meta_inclination": 82.9508,
        "meta_ra_of_asc_node": 301.6284,
        "meta_arg_of_pericenter": 41.0478,
        "meta_mean_anomaly": 28.5622,
        "meta_ephemeris_type": 0,
        "meta_classification_type": "U",
        "meta_norad_cat_id": 27436,
        "meta_element_set_no": 999,
        "meta_rev_at_epoch": 18248,
        "meta_bstar": 3.0288e-05,
        "meta_mean_motion_dot": 4.5e-07,
        "meta_mean_motion_ddot": 0,
        "tle_line1": "1 27436U 02026A   25353.97521560  .00000045  00000+0  30288-4 0  9998",
        "tle_line2": "2 27436  82.9508 301.6284 0047366  41.0478  28.5622 13.75155401182480"
      },
      "geometry": {
        "type": "Point",
        "coordinates": [
          -63.14204322232977,
          -31.220152995204955
        ]
      }
    },
    {
      "type": "Feature",
      "properties": {
        "norad_id": 27818,
        "name": "COSMOS 2398",
        "group": "musson",
        "lat": -23.71704436532336,
        "lon": 90.01613966992207,
        "alt_km": 1005.8111024989475,
        "timestamp": "2025-12-20T14:38:02.239732+00:00",
        "meta_object_name": "COSMOS 2398",
        "meta_object_id": "2003-023A",
        "meta_epoch": "2025-12-20T03:41:35.541312",
        "meta_mean_motion": 13.72386473,
        "meta_eccentricity": 0.00327244,
        "meta_inclination": 82.9484,
        "meta_ra_of_asc_node": 267.2349,
        "meta_arg_of_pericenter": 92.0261,
        "meta_mean_anomaly": 20.4538,
        "meta_ephemeris_type": 0,
        "meta_classification_type": "U",
        "meta_norad_cat_id": 27818,
        "meta_element_set_no": 999,
        "meta_rev_at_epoch": 12918,
        "meta_bstar": 5.5883034e-05,
        "meta_mean_motion_dot": 6.7e-07,
        "meta_mean_motion_ddot": 0,
        "tle_line1": "1 27818U 03023A   25354.15388358  .00000067  00000+0  55883-4 0  9999",
        "tle_line2": "2 27818  82.9484 267.2349 0032724  92.0261  20.4538 13.72386473129181"
      },
      "geometry": {
        "type": "Point",
        "coordinates": [
          90.01613966992207,
          -23.71704436532336
        ]
      }
    },
    {
      "type": "Feature",
      "properties": {
        "norad_id": 28380,
        "name": "COSMOS 2407",
        "group": "musson",
        "lat": 28.937276187681515,
        "lon": 23.14810550759408,
        "alt_km": 989.0001199790258,
        "timestamp": "2025-12-20T14:38:02.239743+00:00",
        "meta_object_name": "COSMOS 2407",
        "meta_object_id": "2004-028A",
        "meta_epoch": "2025-12-20T04:01:37.975296",
        "meta_mean_motion": 13.76314508,
        "meta_eccentricity": 0.00399915,
        "meta_inclination": 82.9598,
        "meta_ra_of_asc_node": 207.3929,
        "meta_arg_of_pericenter": 34.5963,
        "meta_mean_anomaly": 87.2263,
        "meta_ephemeris_type": 0,
        "meta_classification_type": "U",
        "meta_norad_cat_id": 28380,
        "meta_element_set_no": 999,
        "meta_rev_at_epoch": 7525,
        "meta_bstar": 5.6614391e-05,
        "meta_mean_motion_dot": 7.1e-07,
        "meta_mean_motion_ddot": 0,
        "tle_line1": "1 28380U 04028A   25354.16780064  .00000071  00000+0  56614-4 0  9999",
        "tle_line2": "2 28380  82.9598 207.3929 0039991  34.5963  87.2263 13.76314508 75252"
      },
      "geometry": {
        "type": "Point",
        "coordinates": [
          23.14810550759408,
          28.937276187681515
        ]
      }
    },
    {
      "type": "Feature",
      "properties": {
        "norad_id": 28521,
        "name": "COSMOS 2414",
        "group": "musson",
        "lat": 20.947215987003826,
        "lon": -178.57574065745652,
        "alt_km": 939.150922276157,
        "timestamp": "2025-12-20T14:38:02.239754+00:00",
        "meta_object_name": "COSMOS 2414",
        "meta_object_id": "2005-002A",
        "meta_epoch": "2025-12-20T00:41:25.969920",
        "meta_mean_motion": 13.87903927,
        "meta_eccentricity": 0.00412481,
        "meta_inclination": 82.9488,
        "meta_ra_of_asc_node": 179.148,
        "meta_arg_of_pericenter": 119.4004,
        "meta_mean_anomaly": 241.1287,
        "meta_ephemeris_type": 0,
        "meta_classification_type": "U",
        "meta_norad_cat_id": 28521,
        "meta_element_set_no": 999,
        "meta_rev_at_epoch": 5896,
        "meta_bstar": 4.5926204e-05,
        "meta_mean_motion_dot": 7.1e-07,
        "meta_mean_motion_ddot": 0,
        "tle_line1": "1 28521U 05002A   25354.02877280  .00000071  00000+0  45926-4 0  9995",
        "tle_line2": "2 28521  82.9488 179.1480 0041248 119.4004 241.1287 13.87903927 58969"
      },
      "geometry": {
        "type": "Point",
        "coordinates": [
          -178.57574065745652,
          20.947215987003826
        ]
      }
    },
    {
      "type": "Feature",
      "properties": {
        "norad_id": 32052,
        "name": "COSMOS 2429",
        "group": "musson",
        "lat": 24.587883399862022,
        "lon": 154.2749645650942,
        "alt_km": 1001.8764234568198,
        "timestamp": "2025-12-20T14:38:02.239765+00:00",
        "meta_object_name": "COSMOS 2429",
        "meta_object_id": "2007-038A",
        "meta_epoch": "2025-12-20T05:09:10.530144",
        "meta_mean_motion": 13.75150139,
        "meta_eccentricity": 0.00388144,
        "meta_inclination": 82.9805,
        "meta_ra_of_asc_node": 337.7979,
        "meta_arg_of_pericenter": 17.3604,
        "meta_mean_anomaly": 342.8869,
        "meta_ephemeris_type": 0,
        "meta_classification_type": "U",
        "meta_norad_cat_id": 32052,
        "meta_element_set_no": 999,
        "meta_rev_at_epoch": 91705,
        "meta_bstar": 3.7707833e-05,
        "meta_mean_motion_dot": 5.2e-07,
        "meta_mean_motion_ddot": 0,
        "tle_line1": "1 32052U 07038A   25354.21470521  .00000052  00000+0  37708-4 0  9996",
        "tle_line2": "2 32052  82.9805 337.7979 0038814  17.3604 342.8869 13.75150139917053"
      },
      "geometry": {
        "type": "Point",
        "coordinates": [
          154.2749645650942,
          24.587883399862022
        ]
      }
    },
    {
      "type": "Feature",
      "properties": {
        "norad_id": 35635,
        "name": "COSMOS 2454",
        "group": "musson",
        "lat": 49.97996721237585,
        "lon": -25.788819241781127,
        "alt_km": 920.9165110495778,
        "timestamp": "2025-12-20T14:38:02.239775+00:00",
        "meta_object_name": "COSMOS 2454",
        "meta_object_id": "2009-039A",
        "meta_epoch": "2025-12-20T00:46:45.983424",
        "meta_mean_motion": 13.89929547,
        "meta_eccentricity": 0.00202376,
        "meta_inclination": 82.9556,
        "meta_ra_of_asc_node": 163.1166,
        "meta_arg_of_pericenter": 54.2109,
        "meta_mean_anomaly": 68.1245,
        "meta_ephemeris_type": 0,
        "meta_classification_type": "U",
        "meta_norad_cat_id": 35635,
        "meta_element_set_no": 999,
        "meta_rev_at_epoch": 83251,
        "meta_bstar": 3.6626421e-05,
        "meta_mean_motion_dot": 6.1e-07,
        "meta_mean_motion_ddot": 0,
        "tle_line1": "1 35635U 09039A   25354.03247666  .00000061  00000+0  36626-4 0  9999",
        "tle_line2": "2 35635  82.9556 163.1166 0020237  54.2109  68.1245 13.89929547832510"
      },
      "geometry": {
        "type": "Point",
        "coordinates": [
          -25.788819241781127,
          49.97996721237585
        ]
      }
    },
    {
      "type": "Feature",
      "properties": {
        "norad_id": 36519,
        "name": "COSMOS 2463",
        "group": "musson",
        "lat": 12.397996495102959,
        "lon": 22.4856233165714,
        "alt_km": 1002.2842417423899,
        "timestamp": "2025-12-20T14:38:02.239785+00:00",
        "meta_object_name": "COSMOS 2463",
        "meta_object_id": "2010-017A",
        "meta_epoch": "2025-12-20T04:24:02.126016",
        "meta_mean_motion": 13.71649756,
        "meta_eccentricity": 0.00347378,
        "meta_inclination": 82.9605,
        "meta_ra_of_asc_node": 21.2424,
        "meta_arg_of_pericenter": 266.6189,
        "meta_mean_anomaly": 161.2989,
        "meta_ephemeris_type": 0,
        "meta_classification_type": "U",
        "meta_norad_cat_id": 36519,
        "meta_element_set_no": 999,
        "meta_rev_at_epoch": 78339,
        "meta_bstar": 4.3115285e-05,
        "meta_mean_motion_dot": 5.4e-07,
        "meta_mean_motion_ddot": 0,
        "tle_line1": "1 36519U 10017A   25354.18335794  .00000054  00000+0  43115-4 0  9998",
        "tle_line2": "2 36519  82.9605  21.2424 0034737 266.6189 161.2989 13.71649756783398"
      },
      "geometry": {
        "type": "Point",
        "coordinates": [
          22.4856233165714,
          12.397996495102959
        ]
      }
    }
  ]
}